ONEWEB-0444             
1 51638U 22012S   24109.78853547 -.00000574  00000+0 -16798-2 0  9993
2 51638  87.8990 193.1621 0001779 105.7560 254.3764 13.10369150107241
ONEWEB-0445             
1 51639U 22012T   24109.65738116 -.00000272  00000+0 -81510-3 0  9994
2 51639  87.8990 193.1627 0002314  99.5006 260.6383 13.10373389105940
ONEWEB-0446             
1 51640U 22012U   24109.78688334 -.00000415  00000+0 -12259-2 0  9998
2 51640  87.8994 193.1559 0002326 102.3909 257.7478 13.10369437107244
ONEWEB-0448             
1 51641U 22012V   24109.79182260 -.00000628  00000+0 -18360-2 0  9992
2 51641  87.8994 193.1559 0001804 103.4098 256.7230 13.10369738105917
ONEWEB-0449             
1 51642U 22012W   24109.79681366 -.00000642  00000+0 -18757-2 0  9990
2 51642  87.8989 193.1536 0002006  93.7703 266.3654 13.10371606107226
ONEWEB-0451             
1 51643U 22012X   24109.69996488  .00000006  00000+0 -17704-4 0  9990
2 51643  87.9207 162.9609 0001869  94.9160 265.2185 13.17648241109691
ONEWEB-0452             
1 51644U 22012Y   24109.69838467 -.00000016  00000+0 -75156-4 0  9990
2 51644  87.9213 162.9979 0001931  86.8156 273.3196 13.17649992109702
ONEWEB-0455             
1 51645U 22012Z   24109.61111819  .00000698  00000+0  30333-3 0  9999
2 51645  87.5288 134.7658 0017170 173.2199 186.9228 14.22785896113837
